STARLINK-5179           
1 54102U 22136BD  22315.91667824 -.00111570  00000+0 -79835-3 0  9993
2 54102  53.2170  37.4693 0003050  24.7277 247.7803 15.73272225  4002
STARLINK-5200           
1 54103U 22136BE  22315.66668981  .00106793  00000+0  75501-3 0  9996
2 54103  53.2154  38.7080 0002794  22.8831 274.6251 15.73218269  3966
STARLINK-5203           
1 54104U 22136BF  22315.66668981  .00105183  00000+0  74392-3 0  9996
2 54104  53.2162  38.7095 0003018  25.4227 272.6715 15.73215098  3960
COSMOS 2561             
1 54109U 22137A   22315.69938133  .00016628  00000+0  28246-3 0  9996
2 54109  97.0760  35.4311 0008772 184.1610 175.9572 15.51485408  3237
COSMOS 2562             
1 54110U 22137B   22315.68146776  .00018597  00000+0  29395-3 0  9994
2 54110  97.0749  35.4551 0012531 203.4047 156.6638 15.53429184  3239
ONEWEB-0490             
1 54113U 22138A   22315.66668981 -.00919899  00000+0 -10311+0 0  9994
2 54113  87.4325 210.4625 0012204 210.5468  27.0744 14.89623127  3831
ONEWEB-0492             
1 54114U 22138B   22315.91667824 -.00774790  00000+0 -90538-1 0  9998
2 54114  87.4340 210.3850 0013124 214.4817 254.5643 14.87908753  3868
ONEWEB-0495             
1 54115U 22138C   22315.66668981 -.00892407  00000+0 -10926+0 0  9993
2 54115  87.4332 210.4823 0013259 233.6251 260.4238 14.85955602  3820
ONEWEB-0497             
1 54116U 22138D   22315.91667824 -.01010438  00000+0 -12066+0 0  9991
2 54116  87.4350 210.3923 0013778 219.1873 230.7171 14.87320107  3864
ONEWEB-0499             
1 54117U 22138E   22315.66668981 -.00891100  00000+0 -10230+0 0  9992
2 54117  87.4345 210.4686 0013109 213.1344   0.9697 14.88563547  3836
ONEWEB-0500             
1 54118U 22138F   22315.66668981 -.00869936  00000+0 -94900-1 0  9993
2 54118  87.4319 210.4555 0010071 210.3855  64.0784 14.91040839  3830
ONEWEB-0501             
1 54119U 22138G   22315.66668981 -.00890613  00000+0 -10668+0 0  9997
2 54119  87.4317 210.4677 0014274 222.4105 308.8253 14.86826993  3832
ONEWEB-0502             
1 54120U 22138H   22315.91667824 -.00997969  00000+0 -11206+0 0  9993
2 54120  87.4336 210.3766 0011014 207.5522 307.3149 14.89798879  3864
ONEWEB-0503             
1 54121U 22138J   22315.66668981 -.00844896  00000+0 -97125-1 0  9997
2 54121  87.4322 210.4649 0012995 212.9172   4.1535 14.88818288  3835
ONEWEB-0504             
1 54122U 22138K   22315.83334491 -.00981872  00000+0 -10817+0 0  9990
2 54122  87.4333 210.4077 0009884 207.7510 233.6772 14.90527521  3858
ONEWEB-0505             
1 54123U 22138L   22315.66668981 -.00781717  00000+0 -95213-1 0  9997
2 54123  87.4317 210.4706 0013263 231.3199 272.4148 14.86249478  3835
ONEWEB-0506             
1 54124U 22138M   22315.91667824 -.01007505  00000+0 -12413+0 0  9997
2 54124  87.4337 210.3941 0015074 230.8793 178.4508 14.86021909  3869
ONEWEB-0507             
1 54125U 22138N   22315.91667824 -.00965770  00000+0 -10425+0 0  9995
2 54125  87.4323 210.3715 0009133 210.1563 344.9338 14.91300856  3878
ONEWEB-0508             
1 54126U 22138P   22315.91667824 -.00976903  00000+0 -11083+0 0  9997
2 54126  87.4342 210.3814 0011948 209.7541 289.7211 14.89311099  3860
ONEWEB-0509             
1 54127U 22138Q   22315.66668981 -.00896595  00000+0 -10588+0 0  9992
2 54127  87.4343 210.4774 0013776 222.1221 318.6194 14.87429049  3835
ONEWEB-0510             
1 54128U 22138R   22315.58334491  .00074055  00000+0  72731-2 0  9998
2 54128  87.3168 210.4266 0008671 226.2115   6.8071 14.91781501  1300
ONEWEB-0511             
1 54129U 22138S   22315.91667824 -.00979608  00000+0 -10943+0 0  9999
2 54129  87.4335 210.3810 0010900 207.9780 310.2270 14.89953179  3870
ONEWEB-0512             
1 54130U 22138T   22315.83334491 -.01025460  00000+0 -12269+0 0  9995
2 54130  87.4312 210.4094 0013872 221.5155 134.9350 14.87285944  3855
ONEWEB-0513             
1 54131U 22138U   22315.91667824 -.01190079  00000+0 -28693+0 0  9991
2 54131  87.4813 210.5641 0009294 220.1209  12.1262 14.56461304  3849
ONEWEB-0514             
1 54132U 22138V   22315.66668981 -.00918177  00000+0 -10037+0 0  9998
2 54132  87.4321 210.4567 0010662 209.1372  54.7358 14.90640266  3830
ONEWEB-0515             
1 54133U 22138W   22315.66668981  .00044257  00000+0  43879-2 0  9999
2 54133  87.3094 210.3935 0009147 216.5552  87.8483 14.91560511  3834
ONEWEB-0516             
1 54134U 22138X   22315.91667824 -.00958997  00000+0 -10792+0 0  9995
2 54134  87.4339 210.3798 0011178 207.7652 303.4945 14.89593127  3864
ONEWEB-0517             
1 54135U 22138Y   22315.66668981 -.00887203  00000+0 -10020+0 0  9998
2 54135  87.4318 210.4628 0012625 211.8376  16.1719 14.89216936  3836
ONEWEB-0518             
1 54136U 22138Z   22315.91667824 -.00962768  00000+0 -11357+0 0  9996
2 54136  87.4343 210.3872 0013254 217.6430 239.5583 14.87679328  3868
ONEWEB-0519             
1 54137U 22138AA  22315.91667824 -.00991186  00000+0 -10826+0 0  9993
2 54137  87.4330 210.3775 0009858 210.0676 327.8533 14.90898950  3876
ONEWEB-0520             
1 54138U 22138AB  22315.91667824 -.00960307  00000+0 -10976+0 0  9991
2 54138  87.4353 210.3837 0012373 211.1382 282.5912 14.88957317  3860
ONEWEB-0521             
1 54139U 22138AC  22315.66668981 -.00923346  00000+0 -11391+0 0  9993
2 54139  87.4318 210.4766 0013166 235.6237 249.0963 14.85740750  3823
ONEWEB-0522             
1 54140U 22138AD  22315.66668981 -.00927602  00000+0 -10946+0 0  9999
2 54140  87.4340 210.4764 0014252 224.0395 307.2595 14.87545419  3838
ONEWEB-0523             
1 54141U 22138AE  22315.66668981  .00044043  00000+0  43467-2 0  9994
2 54141  87.3135 210.4030 0008562 224.7348  92.1487 14.91748943  3830
ONEWEB-0524             
1 54142U 22138AF  22315.66668981  .00044350  00000+0  43803-2 0  9990
2 54142  87.3101 210.3937 0008612 223.9086  90.3159 14.91717499  3833
ONEWEB-0525             
1 54143U 22138AG  22315.66668981 -.00927967  00000+0 -10578+0 0  9997
2 54143  87.4348 210.4683 0012198 211.8615  11.3802 14.88970996  3832
ONEWEB-0526             
1 54144U 22138AH  22315.91667824 -.00969881  00000+0 -11787+0 0  9995
2 54144  87.4327 210.3899 0014369 224.5990 200.9049 14.86475831  3865
ONEWEB-0529             
1 54145U 22138AJ  22315.91667824 -.00980770  00000+0 -11628+0 0  9990
2 54145  87.4328 210.3832 0013799 218.5993 234.3985 14.87521037  3867
ONEWEB-0531             
1 54146U 22138AK  22315.66668981  .00044150  00000+0  43697-2 0  9993
2 54146  87.3131 210.4058 0008701 223.9399  84.6491 14.91633568  3830
ONEWEB-0535             
1 54147U 22138AL  22315.66668981 -.00915449  00000+0 -98644-1 0  9995
2 54147  87.4321 210.4573 0009772 209.8727  69.4352 14.91215665  3833
ONEWEB-0536             
1 54148U 22138AM  22315.66668981  .00045474  00000+0  45148-2 0  9998
2 54148  87.3205 210.4191 0008731 216.5832  82.3923 14.91502302  3831
GSLV R/B                
1 54149U 22138AN  22315.80123765  .00001667  00000+0  18108-3 0  9994
2 54149  87.3904 210.3940 0024018 205.8157 154.1873 14.87285202  2985
GONETS-M 23             
1 54150U 22139A   22315.61215337  .00000010  00000+0  00000+0 0  9992
2 54150  82.5058  84.5243 0016782 201.7556 158.2807 12.41994551  2465
GONETS-M 24             
1 54151U 22139B   22315.68315900  .00000010  00000+0  00000+0 0  9997
2 54151  82.4968  84.4529 0012535 223.1509 136.8583 12.43606179  2471
GONETS-M 25             
1 54152U 22139C   22315.83825516  .00000010  00000+0  00000+0 0  9994
2 54152  82.5010  84.3578 0013825 216.8741 143.1390 12.43968652  2490
PROGRESS-MS 21          
1 54155U 22140A   22315.39284736  .00014043  00000+0  25399-3 0  9996
2 54155  51.6439 327.3552 0006927  60.3945  19.4853 15.49940881368015
STARLINK-5290           
1 54157U 22141A   22315.58334491  .00003843  00000+0  31772-4 0  9993
2 54157  53.2201  71.9669 0001815  39.7785 274.2778 15.73214055  1303
STARLINK-5297           
1 54158U 22141B   22315.91667824 -.00049914  00000+0 -35271-3 0  9998
2 54158  53.2180  70.3188 0002312  16.7386  24.4632 15.73237154  2371
STARLINK-5294           
1 54159U 22141C   22315.91667824 -.00001647  00000+0 -73054-5 0  9993
2 54159  53.2193  70.3198 0002224  20.7703  21.0414 15.73210422  2377
STARLINK-5233           
1 54160U 22141D   22315.91667824 -.00000347  00000+0  19486-5 0  9999
2 54160  53.2177  70.2563 0001879  20.3907  51.1791 15.73222490  2373
STARLINK-5269           
1 54161U 22141E   22315.91667824 -.00034561  00000+0 -24209-3 0  9993
2 54161  53.2176  70.3166 0002236  20.2297  22.0768 15.73268180  2379
STARLINK-5273           
1 54162U 22141F   22315.91667824 -.00000085  00000+0  38188-5 0  9990
2 54162  53.2179  70.3140 0001922  29.8277  13.7949 15.73227518  2377
STARLINK-5161           
1 54163U 22141G   22315.91667824 -.00071192  00000+0 -50560-3 0  9995
2 54163  53.2176  70.3076 0002244  22.3886  24.7490 15.73266699  2371
STARLINK-5278           
1 54164U 22141H   22315.91667824 -.00017690  00000+0 -12175-3 0  9999
2 54164  53.2177  70.3084 0002054  26.6300  19.9073 15.73223019  2371
STARLINK-5279           
1 54165U 22141J   22315.91667824 -.00065613  00000+0 -46555-3 0  9997
2 54165  53.2189  70.3139 0002163  25.0518  19.1375 15.73255573  2378
STARLINK-5280           
1 54166U 22141K   22315.91667824 -.00046906  00000+0 -33093-3 0  9995
2 54166  53.2172  70.3042 0001856  31.7509  16.0281 15.73248709  2371
STARLINK-5243           
1 54167U 22141L   22315.91667824  .00056595  00000+0  40535-3 0  9998
2 54167  53.2190  70.3128 0002175  27.5432  17.2135 15.73175508  2366
STARLINK-5245           
1 54168U 22141M   22315.58334491 -.00023085  00000+0 -16032-3 0  9998
2 54168  53.2177  71.9524 0001937  36.8314 283.1857 15.73224709  1302
STARLINK-5282           
1 54169U 22141N   22315.58334491  .00006271  00000+0  49015-4 0  9993
2 54169  53.2178  71.9581 0002170  36.2968 280.7199 15.73225887  1306
